    CJ95O010  1997 03 29.7478  0.898800  0.994957  130.4837  283.1766   89.0768  20210728  -2.0  4.0  C/1995 O1 (Hale-Bopp)                                    MPC106342
    PJ96R020  2019 02 11.8926  2.588688  0.314248  333.3273   40.0197    2.6005  20210728  11.5  4.0  P/1996 R2 (Lagerkvist)                                   NK   1615
    PJ97B010  2022 03 28.7487  2.055998  0.760260  183.3344  328.8815   12.3395  20210728  15.0  2.0  P/1997 B1 (Kobayashi)                                    MPC 30063
    PJ98V24S  2018 01 18.2317  3.430718  0.242346  244.6193  159.0358    5.0261  20210728  13.0  2.0  P/1998 VS24 (LINEAR)                                     MPC 75703
    PJ99R28O  2019 06 26.2872  1.123066  0.672259  231.2641  137.8857    7.5673  20210728  20.0  2.0  P/1999 RO28 (LONEOS)                                     NK    731
    PJ99XC0N  2017 06  9.5592  3.300577  0.210212  161.8193  285.2966    5.0296  20210728  13.5  2.0  P/1999 XN120 (Catalina)                                  MPC 75704
    PK00R020  2019 06 17.5457  1.623772  0.531612  176.5433  160.2873   11.6864  20210728  18.0  4.0  P/2000 R2 (LINEAR)                                       NK    744
    PK01H050  2015 10 17.9733  2.448874  0.598391  224.8429  328.6829    8.3668  20210728  12.0  4.0  P/2001 H5 (NEAT)                                         MPC 43019
    PK01Q060  2024 02 28.7661  1.407887  0.822994   42.9302   22.1591   56.9089  20210728  13.5  4.0  P/2001 Q6 (NEAT)                                         MPC 75704
    PK02E57J  2018 06 17.9320  2.637284  0.592389  167.3548  330.3259    4.9762  20210728  12.5  4.0  P/2002 EJ57 (LINEAR)                                     MPC 47727
    PK02T060  2024 07 22.1286  3.376126  0.560778  219.6651  206.2537   10.8378  20210728  10.5  4.0  P/2002 T6 (NEAT-LINEAR)                                  MPC109588
    CK02V94Q  2006 01 27.3294  6.828951  0.963087  100.1163   35.0607   70.6149  20210728   9.5  2.0  C/2002 VQ94 (LINEAR)                                     MPC 75007
    PK03F020  2019 11 12.6974  2.975270  0.542268  192.1174  359.0293   11.6062  20210728  16.5  2.0  P/2003 F2 (NEAT)                                         MPC 50354
    PK03Q29X  2025 08  5.4148  4.230253  0.472983   37.5043  264.5653   11.3902  20210728   8.5  4.0  P/2003 QX29 (NEAT)                                       MPC 50139
    PK03T120  2020 05  6.9071  0.595336  0.769779  219.7547  174.5773   11.0197  20210728  17.0  4.0  P/2003 T12 (SOHO)                                        MPC105235
    PK04A010  2027 01 21.2637  5.498666  0.309343   21.2861  124.8481   10.5516  20210728   6.5  4.0  P/2004 A1 (LONEOS)                                       MPC 82312
    PK04D29O  2024 06  4.5594  4.071920  0.441136   40.6617  147.3725   14.5323  20210728  13.5  2.0  P/2004 DO29 (Spacewatch-LINEAR)                          MPC 54558
    PK04FE0Y  2026 05 31.8068  4.078669  0.168214  242.3832  326.7619    2.1348  20210728  12.5  2.0  P/2004 FY140 (LINEAR)                                    MPC 54823
    PK04R030  2021 09 23.3552  3.547179  0.259460   37.9948  305.4538   12.8011  20210728  14.5  4.0  P/2004 R3 (LINEAR-NEAT)                                  MPC 53304
    PK04V030  2023 11 22.2457  3.953253  0.446323  322.3617  356.1246   50.4410  20210728  11.5  4.0  P/2004 V3 (Siding Spring)                                MPC 55521
    PK04V050  2027 08 18.1604  4.439802  0.443652   87.6928   47.7849   19.3417  20210728   8.0  4.0  P/2004 V5 (LINEAR-Hill)                                  MPC 75705
    PK05E010  2023 09 29.5004  4.399658  0.375145  194.0456  335.5674    4.2638  20210728  10.0  4.0  P/2005 E1 (Tubbiolo)                                     MPC 54164
    PK05G08F  2019 09 28.0016  2.813413  0.517383  284.7045  314.7538    1.1898  20210728  11.5  4.0  P/2005 GF8 (LONEOS)                                      MPC 54823
    PK05J010  2018 10 12.4522  1.536866  0.569571  338.9617  268.8132   31.7598  20210728  16.5  4.0  P/2005 J1 (McNaught)                                     MPC 79019
    PK05L010  2021 11  2.7415  3.142636  0.209619  149.7280  138.2478    7.7386  20210728   9.5  4.0  P/2005 L1 (McNaught)                                     MPC 74246
    PK05S020  2029 01 15.9801  6.431277  0.197519  229.1713  161.2110    3.1357  20210728   7.5  4.0  P/2005 S2 (Skiff)                                        MPC 75706
    PK05SL6B  2026 01 18.1139  3.824844  0.463772   83.3510    1.1822   24.0887  20210728  12.0  2.0  P/2005 SB216 (LONEOS)                                    MPC 75706
    PK05T020  2020 04  8.4284  2.245134  0.416366   58.8435  260.1601    8.2918  20210728  14.5  4.0  P/2005 T2 (Christensen)                                  MPC 55717
    PK05T030  2026 08 18.2124  6.259990  0.174501    6.7900   27.7121    6.2237  20210728   9.0  4.0  P/2005 T3 (Read)                                         MPC 73461
    PK05T040  2034 05 23.3338  0.657642  0.929749   41.6758   25.7707  160.2178  20210728  15.0  4.0  P/2005 T4 (SWAN)                                         MPC 73461
    PK05T050  2025 06 14.2364  3.262762  0.552366  304.5755   57.0014   21.3624  20210728  11.0  4.0  P/2005 T5 (Broughton)                                    MPC 75706
    PK05W030  2021 09 20.9014  2.889995  0.543345  200.7299  210.0853   16.4204  20210728  12.0  4.0  P/2005 W3 (Kowalski)                                     MPC 56954
    PK05Y020  2020 10 19.4200  3.378405  0.470271  193.8842   94.3916   19.0548  20210728   9.0  4.0  P/2005 Y2 (McNaught)                                     MPC 75706
    PK06F040  2019 08  2.4383  2.322879  0.340287   30.9273  183.8267   12.4272  20210728  15.0  4.0  P/2006 F4 (Spacewatch)                                   MPC 56954
    PK06H30R  2028 10 11.3412  1.231281  0.842368  117.2938  309.8984   31.8315  20210728  11.0  4.0  P/2006 HR30 (Siding Spring)                              MPC 75707
    PK06S040  2022 01 13.8681  3.105188  0.508466  305.1410   36.0737   39.5316  20210728  11.0  4.0  P/2006 S4 (Christensen)                                  MPEC 2021-M34
    PK07A020  2022 11 29.2063  2.798557  0.557810  186.7286  300.9078   26.4877  20210728  13.5  4.0  P/2007 A2 (Christensen)                                  MPC 75707
    PK07C020  2026 03 25.8273  3.698894  0.471009  180.0570  275.4922    8.6324  20210728  10.0  4.0  P/2007 C2 (Catalina)                                     MPC 75707
    CK07D010  2007 06  8.1977  8.819378  0.993629  339.9979  171.2141   41.5017  20210728   3.5  4.0  C/2007 D1 (LINEAR)                                       MPC 84315
    PK07K020  2026 12 31.4287  2.303072  0.683053  347.4314  188.6414    7.6315  20210728  14.0  4.0  P/2007 K2 (Gibbs)                                        MPC 82314
    PK07Q020  2020 11 26.9743  1.864783  0.670110  162.7817  172.1593   10.2027  20210728  16.0  4.0  P/2007 Q2 (Gilmore)                                      MPC 60925
    PK07R040  2021 12  8.7123  1.957487  0.670225  282.5861   87.2070   20.2114  20210728  14.5  4.0  P/2007 R4 (Garradd)                                      MPC 75708
    PK07S010  2022 10  8.0347  2.520991  0.339597  245.5602  141.3704    5.9640  20210728  13.0  4.0  P/2007 S1 (Zhao)                                         MPC 73462
    PK07T020  2023 11 17.5565  0.653702  0.785447  359.6403    3.3750    9.7495  20210728  18.5  4.0  P/2007 T2 (Kowalski)                                     MPC 61994
    PK08C94L  2021 09 20.4151  5.420993  0.120424   80.4370   33.3179    8.3463  20210728  10.0  4.0  P/2008 CL94 (Lemmon)                                     MPEC 2021-N06
    PK08L020  2023 05 11.0897  2.331503  0.613242  141.2285  218.0098   25.8634  20210728  12.5  4.0  P/2008 L2 (Hill)                                         MPC 75709
    PK08O030  2031 12 20.0940  2.502488  0.695585  341.1059   47.5836   32.2787  20210728  13.0  4.0  P/2008 O3 (Boattini)                                     MPC 64114
    PK08Q20P  2022 01  2.1472  1.806215  0.491651   75.5299  322.0724    7.5224  20210728  15.5  4.0  P/2008 QP20 (LINEAR-Hill)                                MPC 75709
    PK08W96Z  2021 08 26.7887  1.848720  0.469799  341.9340   56.4459    7.1118  20210728  13.5  4.0  P/2008 WZ96 (LINEAR)                                     MPC 66204
    PK08Y030  2031 10 20.3673  4.462530  0.445450  238.1890  262.8069   38.7679  20210728   8.5  4.0  P/2008 Y3 (McNaught)                                     MPC 75710
    PK09B010  2026 07  2.2121  2.459604  0.634922  128.8756  297.0888   22.2211  20210728  13.0  4.0  P/2009 B1 (Boattini)                                     MPC 75710
    CK09G010  2009 04 16.1537  1.137336  0.997421  175.4332  120.4487  108.7182  20210728   9.0  4.0  C/2009 G1 (STEREO)                                       MPC 66466
    PK09O030  2031 01 17.6902  2.425392  0.687807  154.4286  183.6992   16.2764  20210728  12.5  4.0  P/2009 O3 (Hill)                                         MPC 75710
    PK09Q050  2029 12 15.2979  2.905966  0.609168  209.0331  160.2765   40.9858  20210728  10.0  4.0  P/2009 Q5 (McNaught)                                     MPC 68902
    PK09T020  2031 06 14.2864  1.811244  0.765469  216.3756  215.8296   27.5689  20210728  14.0  4.0  P/2009 T2 (La Sagra)                                     MPC112389
    PK09W51X  2020 11 16.3518  0.800421  0.740236  118.1105   31.6676    9.5943  20210728  19.0  2.0  P/2009 WX51 (Catalina)                                   MPC105235
    PK09Y020  2026 12  4.0107  2.383611  0.636096  172.1422  262.0264   29.9359  20210728  13.0  4.0  P/2009 Y2 (Kowalski)                                     MPC 74247
    PK10A030  2025 03 12.7181  1.620030  0.733499   42.1346   63.8514   14.8349  20210728  14.0  4.0  P/2010 A3 (Hill)                                         MPC 75711
    PK10C010  2028 10 17.7843  5.264529  0.258899    3.6466  141.8861    9.1281  20210728   9.5  4.0  P/2010 C1 (Scotti)                                       MPC 75008
